[{"OBJECT_NAME":"STARLINK-30352","OBJECT_ID":"2023-131E","EPOCH":"2026-03-09T07:50:02.268960","MEAN_MOTION":15.02534219,"ECCENTRICITY":0.00014572,"INCLINATION":43.0043,"RA_OF_ASC_NODE":173.4098,"ARG_OF_PERICENTER":271.2649,"MEAN_ANOMALY":88.8026,"EPHEMERIS_TYPE":0,"CLASSIFICATION_TYPE":"U","NORAD_CAT_ID":57736,"ELEMENT_SET_NO":999,"REV_AT_EPOCH":13987,"BSTAR":4.0658673e-5,"MEAN_MOTION_DOT":3.46e-6,"MEAN_MOTION_DDOT":0},{"OBJECT_NAME":"COSMOS 970 DEB","OBJECT_ID":"1977-121BW","EPOCH":"2026-03-09T04:53:14.846784","MEAN_MOTION":14.37544219,"ECCENTRICITY":0.03554347,"INCLINATION":65.6599,"RA_OF_ASC_NODE":142.1451,"ARG_OF_PERICENTER":356.6534,"MEAN_ANOMALY":33.036,"EPHEMERIS_TYPE":0,"CLASSIFICATION_TYPE":"U","NORAD_CAT_ID":20032,"ELEMENT_SET_NO":999,"REV_AT_EPOCH":64092,"BSTAR":0.00097582793,"MEAN_MOTION_DOT":6.002e-5,"MEAN_MOTION_DDOT":0}]
